OBJECT_NAME,OBJECT_ID,EPOCH,MEAN_MOTION,ECCENTRICITY,INCLINATION,RA_OF_ASC_NODE,ARG_OF_PERICENTER,MEAN_ANOMALY,EPHEMERIS_TYPE,CLASSIFICATION_TYPE,NORAD_CAT_ID,ELEMENT_SET_NO,REV_AT_EPOCH,BSTAR,MEAN_MOTION_DOT,MEAN_MOTION_DDOT
COSMOS 2558,2022-089A,2022-08-29T16:42:47.460096,15.41468960,.0011896,97.2354,339.6122,164.9166,195.2438,0,U,53323,999,429,.2693E-3,.11224E-3,0
SL-4 R/B,2022-089B,2022-08-29T12:30:30.363264,15.74471543,.0096466,97.2538,340.8544,325.2983,34.2011,0,U,53324,999,435,.32782E-3,.63293E-3,.33527E-5
2022-090A,2022-090A,2022-08-29T10:46:24.000096,15.20871329,.0008125,97.4694,314.1105,159.1416,27.8983,0,U,53346,999,385,-.13751E-3,-.3106E-4,0
2022-090B,2022-090B,2022-08-29T13:07:26.741856,15.23759302,.0013022,97.4711,314.2552,182.9056,293.6708,0,U,53347,999,386,.18668E-3,.4426E-4,0
2022-090C,2022-090C,2022-08-29T13:04:39.715104,15.23885436,.0012145,97.4700,314.2522,186.0769,286.2101,0,U,53348,999,386,.26048E-3,.6228E-4,0
CZ-4B R/B,2022-090D,2022-08-29T12:17:55.755168,15.60980133,.0150853,97.5138,315.8380,296.1453,62.4357,0,U,53349,999,396,.25435E-3,.371E-3,.26399E-5
SBIRS GEO-6 (USA 336),2022-092A,2022-08-29T12:34:24.900384,1.00260266,.0002135,6.5577,312.3683,334.2429,94.8657,0,U,53355,999,32,0,.116E-5,0
ATLAS 5 CENTAUR R/B,2022-092B,2022-08-29T05:50:26.888064,1.99524756,.5658671,16.4281,310.4225,182.1432,173.5825,0,U,53356,999,49,0,-.35E-6,0
PRC TEST SPACECRAFT2,2022-093A,2022-08-29T20:31:40.620864,15.30897529,.0177919,49.9955,38.5155,250.8892,263.5830,0,U,53357,999,386,.26213E-4,.782E-5,0
CZ-2F R/B,2022-093B,2022-08-29T11:47:51.738720,15.32647841,.0179128,49.9915,40.2215,251.0921,107.0544,0,U,53358,999,380,.15298E-3,.7729E-4,0
CZ-2F DEB,2022-093C,2022-08-29T10:36:46.310688,15.25735291,.0228163,50.3071,42.6232,265.5499,91.9365,0,U,53359,999,378,.14768E-2,.83274E-3,0
CZ-2F DEB,2022-093D,2022-08-29T12:16:27.202080,15.21219471,.024006,50.3308,43.1095,259.4972,97.8859,0,U,53360,999,377,.17102E-2,.87317E-3,0
CZ-2F DEB,2022-093E,2022-08-29T11:59:15.775296,14.97425804,.0333052,49.7537,46.4521,248.0693,108.4538,0,U,53361,999,372,.18511E-2,.71426E-3,0
CZ-2F DEB,2022-093F,2022-08-29T13:16:11.149248,14.94200395,.0346326,49.8071,46.8479,244.8257,111.6396,0,U,53362,999,372,.1844E-2,.69103E-3,0
CZ-2F DEB,2022-093G,2022-08-29T12:02:35.938176,15.53101556,.0158919,50.0269,38.4869,265.2751,204.8123,0,U,53363,999,383,.74428E-2,.897662E-2,0
CZ-2F DEB,2022-093H,2022-08-29T07:05:07.585152,15.00048160,.0110506,50.0291,47.1773,297.3880,61.5874,0,U,53364,999,369,.36361E-4,.211E-5,0
DANURI (KPLO),2022-094A,2022-08-04T23:16:44.399712,16.09976711,.00033,29.5000,147.2458,140.4700,307.5200,0,U,53365,999,0,0,.1843E-4,-.58274E-5
2022-095A,2022-095A,2022-08-29T10:43:27.153984,15.24451528,.0078895,97.4095,315.1542,7.2564,53.4015,0,U,53367,999,309,.14898E-3,.3914E-4,0
2022-095B,2022-095B,2022-08-29T12:30:48.218688,15.24659214,.0079032,97.4092,315.2337,6.2949,118.2165,0,U,53368,999,309,.15016E-3,.3973E-4,0
2022-095C,2022-095C,2022-08-29T12:28:51.059424,15.24725992,.007877,97.4093,315.2352,5.8978,118.6813,0,U,53369,999,309,.96574E-4,.2529E-4,0
2022-096A,2022-096A,2022-08-29T13:06:18.078912,15.24293109,.0001877,97.4348,142.8533,87.3511,34.7764,0,U,53370,999,310,.68867E-4,.1611E-4,0
2022-096B,2022-096B,2022-08-29T12:58:43.029120,15.24481365,.0003283,97.4358,142.8546,96.8791,7.9262,0,U,53371,999,310,.11379E-3,.2724E-4,0
2022-096C,2022-096C,2022-08-29T13:03:09.353664,15.24490738,.0003223,97.4360,142.8566,96.8850,25.6464,0,U,53372,999,308,.11155E-3,.2669E-4,0
RS29S (SXC3-2110 CYCLOPS),2022-096D,2022-08-29T13:01:16.078944,15.24626481,.0003629,97.4359,142.8586,98.6430,24.1860,0,U,53373,999,308,.16539E-3,.4009E-4,0
RS32S (SXC3-212 MONITOR-1),2022-096E,2022-08-29T11:06:45.970848,15.24733006,.0003733,97.4349,142.7824,94.8428,319.4701,0,U,53374,999,307,.16833E-3,.4095E-4,0
RS34S (SXC3-218 KUZBASS-300),2022-096F,2022-08-29T11:15:24.801120,15.24733027,.0003621,97.4346,142.7899,91.1721,357.1090,0,U,53375,999,307,.15141E-3,.3676E-4,0
RS23S (SXC3-21 UTMN),2022-096G,2022-08-29T15:58:14.193120,15.24775099,.0003761,97.4354,142.9848,88.5990,359.7778,0,U,53376,999,310,.14922E-3,.3626E-4,0
RS28S (SXC3-214 MIET-AIS),2022-096H,2022-08-29T09:46:06.936672,15.24797769,.0003667,97.4356,142.7290,91.2638,21.5632,0,U,53377,999,306,.14447E-3,.3511E-4,0
RS26S (KAI-1),2022-096J,2022-08-29T11:12:58.807584,15.24822862,.0003665,97.4352,142.7908,86.8357,359.4513,0,U,53378,999,307,.1263E-3,.3063E-4,0
2022-096K,2022-096K,2022-08-29T15:50:50.790912,15.25122738,.000488,97.4350,142.9918,43.4687,43.7353,0,U,53379,999,310,.11786E-3,.2879E-4,0
