COSMOS 2558             
1 53323U 22089A   22241.69638264  .00011224  00000+0  26930-3 0  9994
2 53323  97.2354 339.6122 0011896 164.9166 195.2438 15.41468960  4293
SL-4 R/B                
1 53324U 22089B   22241.52118476  .00063293  33527-5  32782-3 0  9996
2 53324  97.2538 340.8544 0096466 325.2983  34.2011 15.74471543  4358
2022-090A               
1 53346U 22090A   22241.44888889 -.00003106  00000+0 -13751-3 0  9993
2 53346  97.4694 314.1105 0008125 159.1416  27.8983 15.20871329  3851
2022-090B               
1 53347U 22090B   22241.54683729  .00004426  00000+0  18668-3 0  9997
2 53347  97.4711 314.2552 0013022 182.9056 293.6708 15.23759302  3863
2022-090C               
1 53348U 22090C   22241.54490411  .00006228  00000+0  26048-3 0  9995
2 53348  97.4700 314.2522 0012145 186.0769 286.2101 15.23885436  3863
CZ-4B R/B               
1 53349U 22090D   22241.51245087  .00037100  26399-5  25435-3 0  9997
2 53349  97.5138 315.8380 0150853 296.1453  62.4357 15.60980133  3960
SBIRS GEO-6 (USA 336)   
1 53355U 22092A   22241.52389931  .00000116  00000+0  00000+0 0  9993
2 53355   6.5577 312.3683 0002135 334.2429  94.8657  1.00260266   324
ATLAS 5 CENTAUR R/B     
1 53356U 22092B   22241.24336676 -.00000035  00000+0  00000+0 0  9992
2 53356  16.4281 310.4225 5658671 182.1432 173.5825  1.99524756   494
PRC TEST SPACECRAFT2    
1 53357U 22093A   22241.85533126  .00000782  00000+0  26213-4 0  9997
2 53357  49.9955  38.5155 0177919 250.8892 263.5830 15.30897529  3864
CZ-2F R/B               
1 53358U 22093B   22241.49157105  .00007729  00000+0  15298-3 0  9995
2 53358  49.9915  40.2215 0179128 251.0921 107.0544 15.32647841  3808
CZ-2F DEB               
1 53359U 22093C   22241.44220267  .00083274  00000+0  14768-2 0  9990
2 53359  50.3071  42.6232 0228163 265.5499  91.9365 15.25735291  3785
CZ-2F DEB               
1 53360U 22093D   22241.51142595  .00087317  00000+0  17102-2 0  9994
2 53360  50.3308  43.1095 0240060 259.4972  97.8859 15.21219471  3776
CZ-2F DEB               
1 53361U 22093E   22241.49948814  .00071426  00000+0  18511-2 0  9999
2 53361  49.7537  46.4521 0333052 248.0693 108.4538 14.97425804  3720
CZ-2F DEB               
1 53362U 22093F   22241.55290682  .00069103  00000+0  18440-2 0  9990
2 53362  49.8071  46.8479 0346326 244.8257 111.6396 14.94200395  3720
CZ-2F DEB               
1 53363U 22093G   22241.50180484  .00897662  00000+0  74428-2 0  9991
2 53363  50.0269  38.4869 0158919 265.2751 204.8123 15.53101556  3839
CZ-2F DEB               
1 53364U 22093H   22241.29522668  .00000211  00000+0  36361-4 0  9994
2 53364  50.0291  47.1773 0110506 297.3880  61.5874 15.00048160  3693
DANURI (KPLO)           
1 53365U 22094A   22216.96995833  .00001843 -58274-5  00000+0 0  9991
2 53365  29.5000 147.2458 0003300 140.4700 307.5200 16.09976711    07
2022-095A               
1 53367U 22095A   22241.44684206  .00003914  00000+0  14898-3 0  9996
2 53367  97.4095 315.1542 0078895   7.2564  53.4015 15.24451528  3099
2022-095B               
1 53368U 22095B   22241.52139142  .00003973  00000+0  15016-3 0  9998
2 53368  97.4092 315.2337 0079032   6.2949 118.2165 15.24659214  3098
2022-095C               
1 53369U 22095C   22241.52003541  .00002529  00000+0  96574-4 0  9997
2 53369  97.4093 315.2352 0078770   5.8978 118.6813 15.24725992  3093
2022-096A               
1 53370U 22096A   22241.54604258  .00001611  00000+0  68867-4 0  9999
2 53370  97.4348 142.8533 0001877  87.3511  34.7764 15.24293109  3100
2022-096B               
1 53371U 22096B   22241.54077580  .00002724  00000+0  11379-3 0  9993
2 53371  97.4358 142.8546 0003283  96.8791   7.9262 15.24481365  3102
2022-096C               
1 53372U 22096C   22241.54385826  .00002669  00000+0  11155-3 0  9999
2 53372  97.4360 142.8566 0003223  96.8850  25.6464 15.24490738  3080
RS29S (SXC3-2110 CYCLO*)
1 53373U 22096D   22241.54254721  .00004009  00000+0  16539-3 0  9990
2 53373  97.4359 142.8586 0003629  98.6430  24.1860 15.24626481  3085
RS32S (SXC3-212 MONITO*)
1 53374U 22096E   22241.46303207  .00004095  00000+0  16833-3 0  9998
2 53374  97.4349 142.7824 0003733  94.8428 319.4701 15.24733006  3075
RS34S (SXC3-218 KUZBAS*)
1 53375U 22096F   22241.46903705  .00003676  00000+0  15141-3 0  9993
2 53375  97.4346 142.7899 0003621  91.1721 357.1090 15.24733027  3070
RS23S (SXC3-21 UTMN)    
1 53376U 22096G   22241.66544205  .00003626  00000+0  14922-3 0  9993
2 53376  97.4354 142.9848 0003761  88.5990 359.7778 15.24775099  3109
RS28S (SXC3-214 MIET-A*)
1 53377U 22096H   22241.40702473  .00003511  00000+0  14447-3 0  9994
2 53377  97.4356 142.7290 0003667  91.2638  21.5632 15.24797769  3062
RS26S (KAI-1)           
1 53378U 22096J   22241.46734731  .00003063  00000+0  12630-3 0  9997
2 53378  97.4352 142.7908 0003665  86.8357 359.4513 15.24822862  3076
2022-096K               
1 53379U 22096K   22241.66031008  .00002879  00000+0  11786-3 0  9992
2 53379  97.4350 142.9918 0004880  43.4687  43.7353 15.25122738  3108
